STARLINK-31268
1 59245U 24049Q   26092.83335647  .00659986  18973-3  15482-2 0  9998
2 59245  42.9790 333.6439 0025214 245.9668 330.7241 15.95491174  5835
